IRIDIUM 36              
1 24967U 97056C   24271.48893436  .00001030  00000+0  34077-3 0  9993
2 24967  86.3906 283.3282 0002413  95.4773 264.6700 14.37053545414488
IRIDIUM 39              
1 25042U 97069D   24271.54914907  .00001684  00000+0  44359-3 0  9995
2 25042  86.3926 323.7489 0020433 102.6645 257.6845 14.48377289410938
IRIDIUM 38              
1 25043U 97069E   24271.46360199  .00001194  00000+0  39225-3 0  9997
2 25043  86.4008 343.7026 0001197 152.9835 207.1425 14.37550481408201
IRIDIUM 42              
1 25077U 97077A   24271.49896919  .00001171  00000+0  39788-3 0  9999
2 25077  86.4019 349.5288 0001530 101.8648 258.2720 14.35827405403492
IRIDIUM 44              
1 25078U 97077B   24271.60338491  .00001120  00000+0  35195-3 0  9991
2 25078  86.3984 332.1210 0003200 128.0249 232.1239 14.39670690405911
IRIDIUM 45              
1 25104U 97082A   24271.44177042  .00020971  00000+0  10498-2 0  9995
2 25104  86.3709 174.0861 0144286 225.7889 133.1427 15.08526862412247
IRIDIUM 24              
1 25105U 97082B   24271.49475881  .00001477  00000+0  44904-3 0  9993
2 25105  86.3984 191.5844 0009666 217.3587 142.6941 14.41492175405368
IRIDIUM 51              
1 25262U 98018A   24271.48518355  .00031864  00000+0  12645-2 0  9999
2 25262  86.3996 183.5511 0131197 162.2673 198.3215 15.17507875406895
